TDRS 3                  
1 19548U 88091B   21006.42659800 -.00000296  00000-0  00000-0 0  9994
2 19548  14.0636 355.6465 0039860 321.2453 254.1085  1.00272372105453
FLTSATCOM 8 (USA 46)    
1 20253U 89077A   21006.49738108 -.00000076  00000-0  00000-0 0  9996
2 20253  12.9929   3.9650 0001462 321.6447  31.6084  1.00271683240678
SKYNET 4C               
1 20776U 90079A   21006.10086856  .00000128  00000-0  00000-0 0  9991
2 20776  13.9334   4.2122 0003298 280.6502 250.8463  1.00266313110959
TDRS 5                  
1 21639U 91054B   21006.24750456  .00000086  00000-0  00000-0 0  9996
2 21639  14.2511   8.9529 0025086 357.1246  21.2805  1.00274338107788
TDRS 6                  
1 22314U 93003B   21006.42410733 -.00000292  00000-0  00000-0 0  9994
2 22314  14.0747  12.1267 0005060  71.1842 129.7638  1.00274486102472
UFO 2 (USA 95)          
1 22787U 93056A   21006.20156355  .00000130  00000-0  00000-0 0  9999
2 22787  11.3369  14.1294 0008186 261.0108 292.1686  1.00272952 98608
USA 99 (MILSTAR-1 1)    
1 22988U 94009A   21006.23506285 -.00000194  00000-0  00000-0 0  9996
2 22988  14.4846  48.8037 0001616 265.5555 146.2945  1.00273414 13035
ASTRA 1D                
1 23331U 94070A   21006.46850594 -.00000265  00000-0  00000-0 0  9996
2 23331   9.3838  41.0149 0003500 248.5065 272.4016  1.00270344 96358
USA 107 (DSP 17)        
1 23435U 94084A   21006.55200156 -.00000164  00000-0  00000-0 0  9997
2 23435  14.5751  10.1414 0001132  50.7189 147.6725  1.00269709 13022
UFO 4 (USA 108)         
1 23467U 95003A   21006.32051340 -.00000021  00000-0  00000-0 0  9990
2 23467   9.8225  19.9883 0001126  24.6432 348.9140  1.00271050 95020
AMSC 1                  
1 23553U 95019A   21006.61987334 -.00000096  00000-0  00000-0 0  9998
2 23553  11.4564  29.7734 0006994 308.4303 244.8536  1.00272016 94242
TDRS 7                  
1 23613U 95035B   21006.46405753 -.00000200  00000-0  00000-0 0  9993
2 23613  14.1494   2.8077 0026682  30.0269 325.3694  1.00273431 93317
USA 113                 
1 23628U 95038A   21006.50374931 -.00000337  00000-0  00000-0 0  9991
2 23628  11.6176  28.6169 0001759 264.2075  98.6917  1.00272791 13042
USA 115 (MILSTAR-1 2)   
1 23712U 95060A   21006.62863442 -.00000017  00000-0  00000-0 0  9998
2 23712  13.3054  18.3078 0002719 275.8828 278.5330  1.00273101 12948
INMARSAT 3-F1           
1 23839U 96020A   21006.52271617 -.00000355  00000-0  00000-0 0  9996
2 23839   6.4746  61.2406 0004309 227.4540 127.0410  0.99992457 90371
INMARSAT 3-F2           
1 24307U 96053A   21006.33922207 -.00000063  00000-0  00000-0 0  9996
2 24307   5.3465  70.6592 0004142 251.1008 264.9737  1.00002727 89046
AMC-1 (GE-1)            
1 24315U 96054A   21006.57802503  .00000071  00000-0  00000-0 0  9996
2 24315   4.3954  77.3097 0003128 213.8584 252.3748  1.00270232 26398
INMARSAT 3-F3           
1 24674U 96070A   21006.50510201  .00000038  00000-0  00000-0 0  9999
2 24674   6.0226  65.0722 0005100 225.7701 175.3415  1.00272598 88032
INTELSAT 26 (IS-26)     
1 24732U 97007A   21005.70606626  .00000009  00000-0  00000-0 0  9991
2 24732   9.3229  41.8054 0003437 283.1809  98.3286  1.00271635 52801
USA 130 (DSP 18)        
1 24737U 97008A   21006.22139833  .00000037  00000-0  00000-0 0  9997
2 24737  13.6639  18.0861 0001080 358.2150 177.9942  1.00286338 12968
GALAXY 25 (G-25)        
1 24812U 97026A   21006.48961706  .00000161  00000-0  00000-0 0  9999
2 24812   2.4062  88.6932 0003628 199.7060  26.9866  1.00272289 86440
INTELSAT 5 (IS-5)       
1 24916U 97046A   21006.41531628  .00000094  00000-0  00000-0 0  9990
2 24916   6.1247  64.4196 0003694 205.7326 208.5649  1.00270140 85698
AMC-3 (GE-3)            
1 24936U 97050A   21006.34190111 -.00000253  00000-0  00000-0 0  9995
2 24936   3.2779  84.1358 0003231 215.1557 217.9183  1.00271008 32508
NSS-5                   
1 24957U 97053A   21006.20601260  .00000109  00000-0  00000-0 0  9997
2 24957   6.3733  62.6502 0003570 223.1203 304.8545  1.00273421 85237
USA 134                 
1 25019U 97065A   21006.61631084 -.00000060  00000-0  00000-0 0  9999
2 25019  10.4513  34.7825 0006474 296.3961 245.2730  1.00274606 13024
ASTRA 1G                
1 25071U 97076A   21006.20540194  .00000142  00000-0  00000-0 0  9995
2 25071   5.0607  71.9953 0004502 200.0498 315.2370  1.00039985 84629
INMARSAT 3-F5           
1 25153U 98006B   21006.44935730 -.00000284  00000-0  00000-0 0  9998
2 25153   5.2458  69.1550 0005182 217.6707 287.1976  1.00272877 83964
UFO 8 (USA 138)         
1 25258U 98016A   21006.41169112 -.00000022  00000-0  00000-0 0  9995
2 25258   8.8735  31.9818 0003685 267.3006 126.6959  1.00271089 83929
ASTRA 2A                
1 25462U 98050A   21006.28313256  .00000156  00000-0  00000-0 0  9992
2 25462   2.1098  91.0919 0002322 189.3597 315.5008  1.00269295 26409
JCSAT-4A                
1 25630U 99006A   21006.51020477 -.00000305  00000-0  00000-0 0  9994
2 25630   5.0469  72.6986 0011827 199.2689 153.9822  1.00268784 30675
SKYNET 4E               
1 25639U 99009B   21006.22858878 -.00000029  00000-0  00000-0 0  9991
2 25639  10.9814  19.8537 0002892 276.1929 251.0600  1.00275283 31455
ASIASAT 3S              
1 25657U 99013A   21003.05276373 -.00000217  00000-0  00000-0 0  9997
2 25657   5.2251  71.2033 0002302 214.2625 343.8941  1.00269639 79854
NIMIQ 1                 
1 25740U 99027A   21006.33409339 -.00000190  00000-0  00000-0 0  9999
2 25740   1.5807  92.3817 0005028 199.6264 207.8070  1.00268812 79124
ABS-7                   
1 25894U 99046A   21006.49694490  .00000003  00000-0  00000-0 0  9993
2 25894   1.4600  93.0411 0005493 200.3331  61.3092  1.00127447 77193
ABS-6                   
1 25924U 99053A   21006.58808924 -.00000112  00000-0  00000-0 0  9996
2 25924   0.0282 335.0227 0002183 301.8794 200.2024  1.00271279 77940
AMC-4 (GE-4)            
1 25954U 99060A   21006.53906330  .00000096  00000-0  00000-0 0  9992
2 25954   0.2176  97.4413 0002616 192.8271 235.2188  1.00272026 23628
UFO 10 (USA 146)        
1 25967U 99063A   21006.29967425 -.00000180  00000-0  00000-0 0  9999
2 25967   8.0929  35.0662 0002795 268.3005 248.1593  1.00270560 77410
GALAXY 11 (G-11)        
1 26038U 99071A   21006.38780549 -.00000155  00000-0  00000-0 0  9990
2 26038   1.7103  94.8908 0000655 304.9096 112.8890  1.00270392 77151
USA 148                 
1 26052U 00001A   21006.48946525  .00000044  00000-0  00000-0 0  9996
2 26052   8.7205  45.4756 0001777 289.4617 127.7732  1.00274368 13036
ASIASTAR                
1 26107U 00016A   21006.50401101 -.00000328  00000-0  00000-0 0  9998
2 26107   4.4701  75.8721 0003924 209.1021 107.7928  1.00270131 75996
USA 149 (DSP 20)        
1 26356U 00024A   21006.29554939  .00000101  00000-0  00000-0 0  9995
2 26356  11.6957  25.0204 0001140 352.3149  29.8980  1.00284089 12987
EUTELSAT 80A            
1 26369U 00028A   21006.20557642  .00000127  00000-0  00000-0 0  9996
2 26369   3.8559  79.7472 0004825 210.4440 298.0459  1.00271592 75509
TDRS 8                  
1 26388U 00034A   21006.53498078 -.00000225  00000-0  00000-0 0  9997
2 26388   9.5451  46.1575 0018543 317.0296  24.5607  1.00262794 75243
INTELSAT 9 (IS-9)       
1 26451U 00043A   21006.47312944 -.00000282  00000-0  00000-0 0  9991
2 26451   6.1122  64.6144 0002835 223.5673 298.4064  1.00269786 24214
BRASILSAT B4            
1 26469U 00046A   21006.33143788 -.00000165  00000-0  00000-0 0  9996
2 26469   4.4409  77.0291 0003197 216.9984 199.4032  1.00268617 75039
ASTRA 2B                
1 26494U 00054A   21006.34340940  .00000123  00000-0  00000-0 0  9996
2 26494   4.9626  72.5988 0004717 215.5211 321.2513  1.00274141 26958
NSS-11 (AAP-1)          
1 26554U 00059A   21006.57941528  .00000033  00000-0  00000-0 0  9992
2 26554   0.0130 358.6736 0003087 305.0428 187.2392  1.00270482 21375
USA 153                 
1 26575U 00065A   21006.50985582 -.00000320  00000-0  00000-0 0  9993
2 26575   8.2252  48.7749 0001899 266.4108 109.1456  1.00270021 13002
AMC-6 (GE-6)            
1 26580U 00067A   21006.53658576  .00000113  00000-0  00000-0 0  9993
2 26580   0.0161 345.0589 0002720 308.1507 227.2799  1.00269779 74000
INTELSAT 12 (IS-12)     
1 26590U 00068A   21006.20871691  .00000019  00000-0  00000-0 0  9999
2 26590   3.4073  84.4733 0003668 211.3969 309.5056  1.00272579 31784
INTELSAT 1R (IS-1R)     
1 26608U 00072A   21006.62087976 -.00000132  00000-0  00000-0 0  9992
2 26608   3.1622  84.5693 0000210  54.2615 348.1760  1.00271751 21397
ANIK F1                 
1 26624U 00076A   21006.47089297 -.00000066  00000-0  00000-0 0  9991
2 26624   0.1315 102.5718 0002456 314.9083 111.0092  1.00270822 23215
ASTRA 2D                
1 26638U 00081A   21005.70484495  .00000068  00000-0  00000-0 0  9997
2 26638   6.2000  63.5969 0002335 216.6404 136.2023  1.00272048 32960
AMC-8 (GE-8)            
1 26639U 00081B   21006.53918109  .00000096  00000-0  00000-0 0  9995
2 26639   1.1478  93.9670 0002821 199.1404 232.3167  1.00273245 73406
USA 157 (MILSTAR-2 2)   
1 26715U 01009A   21006.47367477  .00000048  00000-0  00000-0 0  9997
2 26715   9.5169  29.6045 0003999 271.1444 154.6883  1.00401310 13023
EUTELSAT 133 WEST A     
1 26719U 01011A   21006.54112615  .00000085  00000-0  00000-0 0  9995
2 26719   2.4412  87.3889 0005127 202.6847 238.1944  1.00268345 72613
INTELSAT 10 (IS-10)     
1 26766U 01019A   21006.20540194  .00000129  00000-0  00000-0 0  9994
2 26766   4.3515  77.5657 0003485 208.5606 301.3260  1.00274085 25684
INTELSAT 901 (IS-901)   
1 26824U 01024A   21006.47749125 -.00000194  00000-0  00000-0 0  9992
2 26824   0.0382 268.7874 0000952  30.9580 310.9024  1.00269403  3041
ASTRA 2C                
1 26853U 01025A   21006.48778510  .00000142  00000-0  00000-0 0  9998
2 26853   3.3039  83.9075 0002766 204.2485  17.4032  1.00269652 25119
